NORAD_CAT_ID,OBJECT_NAME,OBJECT_TYPE,EPOCH,MEAN_MOTION,ECCENTRICITY,INCLINATION,RA_OF_ASC_NODE,ARG_OF_PERICENTER,MEAN_ANOMALY,BSTAR,MEAN_MOTION_DOT,MEAN_MOTION_DDOT,TLE_LINE0,TLE_LINE1,TLE_LINE2,SEMIMAJOR_AXIS,PERIOD,APOGEE,PERIGEE,DECAYED
54055.0,STARLINK-5158,PAYLOAD,2023-10-26 08:13:47,15.08848647,0.0001835,53.216,268.9813,89.6512,270.469,0.00018518,2.661e-05,0.0,0 STARLINK-5158,1 54055U 22136E   23299.34291156  .00002661  00000-0  18518-3 0  9990,2 54055  53.2160 268.9813 0001835  89.6512 270.4690 15.08848647 56205,6917.854,95.437,540.988,538.45,0.0
54055.0,STARLINK-5158,PAYLOAD,2023-10-27 08:04:34,15.0885855,0.0001709,53.2158,264.5191,91.1493,268.9695,0.00041349,6.302e-05,0.0,0 STARLINK-5158,1 54055U 22136E   23300.33650585  .00006302  00000-0  41349-3 0  9991,2 54055  53.2158 264.5191 0001709  91.1493 268.9695 15.08858550 56839,6917.824,95.436,540.871,538.506,0.0
54055.0,STARLINK-5158,PAYLOAD,2023-10-27 22:23:03,15.08833688,0.0001547,53.2164,261.8432,96.4448,263.672,-0.00012747,-2.316e-05,0.0,0 STARLINK-5158,1 54055U 22136E   23300.93267406 -.00002316  00000-0 -12747-3 0  9996,2 54055  53.2164 261.8432 0001547  96.4448 263.6720 15.08833688 56445,6917.9,95.438,540.835,538.694,0.0
54055.0,STARLINK-5158,PAYLOAD,2023-10-28 04:44:35,15.08841798,0.0001777,53.2162,260.6542,105.347,254.7719,6.2401e-05,7.05e-06,0.0,0 STARLINK-5158,1 54055U 22136E   23301.19763187  .00000705  00000-0  62401-4 0  9993,2 54055  53.2162 260.6542 0001777 105.3470 254.7719 15.08841798 56969,6917.875,95.437,540.969,538.511,0.0
54055.0,STARLINK-5158,PAYLOAD,2023-10-28 14:16:54,15.08842462,0.0001604,53.2161,258.87,98.6553,261.4621,0.00011177,1.491e-05,0.0,0 STARLINK-5158,1 54055U 22136E   23301.59507268  .00001491  00000-0  11177-3 0  9999,2 54055  53.2161 258.8700 0001604  98.6553 261.4621 15.08842462 56548,6917.873,95.437,540.847,538.628,0.0
54055.0,STARLINK-5158,PAYLOAD,2023-10-29 06:10:45,15.08848821,0.0001757,53.2168,255.8958,96.6079,263.5113,0.00024129,3.555e-05,0.0,0 STARLINK-5158,1 54055U 22136E   23302.25747147  .00003555  00000-0  24129-3 0  9999,2 54055  53.2168 255.8958 0001757  96.6079 263.5113 15.08848821 57126,6917.853,95.437,540.934,538.503,0.0
54055.0,STARLINK-5158,PAYLOAD,2023-10-29 14:07:41,15.088439,0.0001846,53.2176,254.4087,93.6805,266.4398,0.0001318,1.81e-05,0.0,0 STARLINK-5158,1 54055U 22136E   23302.58867503  .00001810  00000-0  13180-3 0  9991,2 54055  53.2176 254.4087 0001846  93.6805 266.4398 15.08843900 56697,6917.868,95.437,541.011,538.456,0.0
54055.0,STARLINK-5158,PAYLOAD,2023-10-30 13:58:29,15.08838707,0.0001821,53.2188,249.948,92.037,268.0831,1.3352e-05,-7.6e-07,0.0,0 STARLINK-5158,1 54055U 22136E   23303.58228173 -.00000076  00000-0  13352-4 0  9992,2 54055  53.2188 249.9480 0001821  92.0370 268.0831 15.08838707 57329,6917.884,95.438,541.009,538.49,0.0
54055.0,STARLINK-5158,PAYLOAD,2023-10-31 13:49:16,15.08840524,0.000173,53.2174,245.4869,93.33,266.789,5.3461e-05,5.63e-06,0.0,0 STARLINK-5158,1 54055U 22136E   23304.57588426  .00000563  00000-0  53461-4 0  9997,2 54055  53.2174 245.4869 0001730  93.3300 266.7890 15.08840524 56994,6917.879,95.438,540.941,538.547,0.0
54055.0,STARLINK-5158,PAYLOAD,2023-10-31 20:10:49,15.08838917,0.0001622,53.217,244.2979,94.0403,266.0775,0.00013189,1.812e-05,0.0,0 STARLINK-5158,1 54055U 22136E   23304.84084583  .00001812  00000-0  13189-3 0  9992,2 54055  53.2170 244.2979 0001622  94.0403 266.0775 15.08838917 57518,6917.884,95.438,540.871,538.627,0.0
54055.0,STARLINK-5158,PAYLOAD,2023-11-01 05:43:07,15.08852437,0.0001663,53.217,242.5143,94.1288,265.9894,0.00036953,5.6e-05,0.0,0 STARLINK-5158,1 54055U 22136E   23305.23828090  .00005600  00000-0  36953-3 0  9998,2 54055  53.2170 242.5143 0001663  94.1288 265.9894 15.08852437 57578,6917.842,95.437,540.858,538.557,0.0
54055.0,STARLINK-5158,PAYLOAD,2023-11-02 02:23:08,15.08850562,0.0001378,53.2156,238.6486,94.402,265.713,0.00027624,4.112e-05,0.0,0 STARLINK-5158,1 54055U 22136E   23306.09939949  .00004112  00000-0  27624-3 0  9991,2 54055  53.2156 238.6486 0001378  94.4020 265.7130 15.08850562 57701,6917.848,95.437,540.666,538.76,0.0
54055.0,STARLINK-5158,PAYLOAD,2023-11-02 19:52:22,15.08844818,0.0001598,53.2164,235.3774,92.69,267.4275,8.2959e-05,1.033e-05,0.0,0 STARLINK-5158,1 54055U 22136E   23306.82803989  .00001033  00000-0  82959-4 0  9998,2 54055  53.2164 235.3774 0001598  92.6900 267.4275 15.08844818 57813,6917.866,95.437,540.836,538.625,0.0
54055.0,STARLINK-5158,PAYLOAD,2023-11-03 11:46:14,15.08842844,0.0001395,53.2159,232.404,78.4872,281.6277,5.9141e-05,6.53e-06,0.0,0 STARLINK-5158,1 54055U 22136E   23307.49043989  .00000653  00000-0  59141-4 0  9992,2 54055  53.2159 232.4040 0001395  78.4872 281.6277 15.08842844 57431,6917.872,95.437,540.702,538.772,0.0
54055.0,STARLINK-5158,PAYLOAD,2023-11-03 18:07:46,15.08838778,0.0001362,53.2165,231.2177,85.3949,274.7199,4.4943e-05,4.27e-06,0.0,0 STARLINK-5158,1 54055U 22136E   23307.75540264  .00000427  00000-0  44943-4 0  9992,2 54055  53.2165 231.2177 0001362  85.3949 274.7199 15.08838778 57956,6917.884,95.438,540.691,538.807,0.0
54055.0,STARLINK-5158,PAYLOAD,2023-11-04 03:40:05,15.08850187,0.0001518,53.2177,229.4338,95.1963,264.9203,0.00012343,1.677e-05,0.0,0 STARLINK-5158,1 54055U 22136E   23308.15283638  .00001677  00000-0  12343-3 0  9992,2 54055  53.2177 229.4338 0001518  95.1963 264.9203 15.08850187 58018,6917.849,95.437,540.764,538.664,0.0
54055.0,STARLINK-5158,PAYLOAD,2023-11-04 11:37:00,15.08843394,0.0001307,53.2157,227.9427,76.2865,283.8273,0.00011987,1.621e-05,0.0,0 STARLINK-5158,1 54055U 22136E   23308.48403885  .00001621  00000-0  11987-3 0  9998,2 54055  53.2157 227.9427 0001307  76.2865 283.8273 15.08843394 57585,6917.87,95.437,540.639,538.831,0.0
54055.0,STARLINK-5158,PAYLOAD,2023-11-04 22:44:43,15.08837001,0.0002462,53.2166,225.8621,75.4885,284.638,3.6752e-05,2.97e-06,0.0,0 STARLINK-5158,1 54055U 22136E   23308.94772709  .00000297  00000-0  36752-4 0  9999,2 54055  53.2166 225.8621 0002462  75.4885 284.6380 15.08837001 57658,6917.89,95.438,541.458,538.051,0.0
54055.0,STARLINK-5158,PAYLOAD,2023-11-05 11:27:48,15.0884758,0.000155,53.2167,223.4865,93.6117,266.5052,0.00018999,2.738e-05,0.0,0 STARLINK-5158,1 54055U 22136E   23309.47763912  .00002738  00000-0  18999-3 0  9998,2 54055  53.2167 223.4865 0001550  93.6117 266.5052 15.08847580 57737,6917.857,95.437,540.794,538.65,0.0
54055.0,STARLINK-5158,PAYLOAD,2023-11-05 22:35:28,15.08860735,8.85e-05,53.217,221.4016,127.8285,232.2788,0.00050014,7.685e-05,0.0,0 STARLINK-5158,1 54055U 22136E   23309.94130566  .00007685  00000-0  50014-3 0  9993,2 54055  53.2170 221.4016 0000885 127.8285 232.2788 15.08860735 57804,6917.817,95.436,540.294,539.07,0.0
54055.0,STARLINK-5158,PAYLOAD,2023-11-06 03:21:36,15.08907244,0.0001335,53.216,220.51,106.4052,253.7087,0.0010999,0.00017292,0.0,0 STARLINK-5158,1 54055U 22136E   23310.14000528  .00017292  00000-0  10999-2 0  9993,2 54055  53.2160 220.5100 0001335 106.4052 253.7087 15.08907244 58317,6917.675,95.433,540.463,538.616,0.0
54055.0,STARLINK-5158,PAYLOAD,2023-11-06 11:18:33,15.0886233,0.0002063,53.2164,219.0218,76.1531,283.969,0.0001839,2.642e-05,0.0,0 STARLINK-5158,1 54055U 22136E   23310.47121832  .00002642  00000-0  18390-3 0  9998,2 54055  53.2164 219.0218 0002063  76.1531 283.9690 15.08862330 58364,6917.812,95.436,541.104,538.25,0.0
54055.0,STARLINK-5158,PAYLOAD,2023-11-06 22:26:16,15.08818422,0.000123,53.2164,216.9421,87.6118,272.5015,-0.00058901,-9.644e-05,0.0,0 STARLINK-5158,1 54055U 22136E   23310.93491288 -.00009644  00000-0 -58901-3 0  9997,2 54055  53.2164 216.9421 0001230  87.6118 272.5015 15.08818422 57951,6917.946,95.439,540.662,538.96,0.0
54055.0,STARLINK-5158,PAYLOAD,2023-11-07 03:12:26,15.08797689,0.0001387,53.216,216.0514,90.7305,269.3846,-0.0010142,-0.00016374,0.0,0 STARLINK-5158,1 54055U 22136E   23311.13364452 -.00016374  00000-0 -10142-2 0  9994,2 54055  53.2160 216.0514 0001387  90.7305 269.3846 15.08797689 58461,6918.01,95.44,540.834,538.915,0.0
54055.0,STARLINK-5158,PAYLOAD,2023-11-07 11:09:23,15.08801863,0.0001367,53.2162,214.5654,92.5182,267.5967,-0.00070993,-0.00011557,0.0,0 STARLINK-5158,1 54055U 22136E   23311.46485067 -.00011557  00000-0 -70993-3 0  9995,2 54055  53.2162 214.5654 0001367  92.5182 267.5967 15.08801863 58512,6917.997,95.44,540.808,538.916,0.0
54055.0,STARLINK-5158,PAYLOAD,2023-11-07 23:52:28,15.08806631,0.0001056,53.2169,212.1849,99.7627,260.3484,-0.0003222,-5.407e-05,0.0,0 STARLINK-5158,1 54055U 22136E   23311.99477901 -.00005407  00000-0 -32220-3 0  9999,2 54055  53.2169 212.1849 0001056  99.7627 260.3484 15.08806631 58598,6917.982,95.44,540.578,539.117,0.0
54055.0,STARLINK-5158,PAYLOAD,2023-11-08 22:07:52,15.08843876,0.0001139,53.2178,208.0221,93.3573,266.755,0.00078223,0.00012184,0.0,0 STARLINK-5158,1 54055U 22136E   23312.92213560  .00012184  00000-0  78223-3 0  9993,2 54055  53.2178 208.0221 0001139  93.3573 266.7550 15.08843876 58257,6917.869,95.437,540.521,538.946,0.0
54055.0,STARLINK-5158,PAYLOAD,2023-11-08 23:43:15,15.08842997,0.0001284,53.2178,207.7243,97.919,262.1948,0.00073918,0.00011497,0.0,0 STARLINK-5158,1 54055U 22136E   23312.98837607  .00011497  00000-0  73918-3 0  9995,2 54055  53.2178 207.7243 0001284  97.9190 262.1948 15.08842997 58741,6917.871,95.437,540.624,538.848,0.0
54055.0,STARLINK-5158,PAYLOAD,2023-11-09 21:58:39,15.08846384,0.0001359,53.2172,203.561,105.2088,254.9054,0.00027369,4.071e-05,0.0,0 STARLINK-5158,1 54055U 22136E   23313.91573636  .00004071  00000-0  27369-3 0  9997,2 54055  53.2172 203.5610 0001359 105.2088 254.9054 15.08846384 58403,6917.861,95.437,540.666,538.786,0.0
54055.0,STARLINK-5158,PAYLOAD,2023-11-09 23:34:02,15.08845793,0.0001343,53.2165,203.2658,88.383,271.7316,0.00032999,4.969e-05,0.0,0 STARLINK-5158,1 54055U 22136E   23313.98197894  .00004969  00000-0  32999-3 0  9993,2 54055  53.2165 203.2658 0001343  88.3830 271.7316 15.08845793 58897,6917.863,95.437,540.657,538.799,0.0
